ORBCOMM FM103 [+]       
1 40091U 14040F   23244.07141147  .00000673  00000+0  18981-3 0  9998
2 40091  47.0050 225.5962 0001491 187.3172 172.7691 14.55848563485635
ORBCOMM FM114 [+]       
1 41179U 15081A   23243.14670195  .00000939  00000+0  24973-3 0  9992
2 41179  47.0023 139.3232 0001741 229.5118 130.5615 14.55865247408857
ORBCOMM FM119 [-]       
1 41180U 15081B   23243.86799693  .00000695  00000+0  19476-3 0  9999
2 41180  47.0019  45.1198 0001903 277.4986  82.5682 14.55845162410165
ORBCOMM FM105 [-]       
1 41181U 15081C   23243.40010765  .00000305  00000+0  13406-3 0  9991
2 41181  47.0030 351.4251 0002572 258.8905 101.1686 14.43989342405936
ORBCOMM FM110 [+]       
1 41182U 15081D   23244.08428398  .00001049  00000+0  27448-3 0  9999
2 41182  47.0017 134.3406 0001710  39.1281 320.9727 14.55858528408992
ORBCOMM FM118 [+]       
1 41183U 15081E   23244.06183778  .00001017  00000+0  26720-3 0  9995
2 41183  47.0036 134.7045 0001942  36.8919 323.2098 14.55865626408990
ORBCOMM FM112 [+]       
1 41184U 15081F   23243.57162791  .00000753  00000+0  20775-3 0  9993
2 41184  46.9997  45.7801 0001904 258.9917 101.0753 14.55841904410063
ORBCOMM FM113 [+]       
1 41185U 15081G   23243.82268154  .00000815  00000+0  22172-3 0  9994
2 41185  47.0016  44.8158 0001504 268.6459  91.4253 14.55855890410086
